STARLINK-35200          
1 65855U 25223B   26162.47231631  .00016594  00000+0  57118-3 0  9996
2 65855  53.1591 218.6061 0001261  69.9483 290.1654 15.30197717 38568
STARLINK-35459          
1 65856U 25223C   26162.45096418  .00002639  00000+0  89316-4 0  9998
2 65856  53.1575 217.7660 0001144  73.7505 286.3623 15.34363466 38578
STARLINK-35489          
1 65857U 25223D   26162.47621882  .00031947  00000+0  95364-3 0  9993
2 65857  53.1596 217.9220 0001309  70.9213 289.1932 15.34367074 38577
STARLINK-35199          
1 65858U 25223E   26162.45754130  .00018509  00000+0  63557-3 0  9993
2 65858  53.1584 218.5125 0001235  87.9456 272.1686 15.30196185 38567
STARLINK-35408          
1 65859U 25223F   26162.41738058  .00019561  00000+0  58862-3 0  9993
2 65859  53.1593 218.2634 0002346  98.7711 261.3557 15.34396515 38568
STARLINK-35303          
1 65860U 25223G   26162.47829876 -.00002561  00000+0 -64760-4 0  9999
2 65860  53.1600 217.9341 0001149 101.3609 258.7523 15.34369754 38576
STARLINK-35258          
1 65861U 25223H   26162.39212697  .00017759  00000+0  53549-3 0  9993
2 65861  53.1589 218.1075 0001156 119.0713 241.0405 15.34401026 38562
STARLINK-35386          
1 65862U 25223J   26162.44262792  .00018495  00000+0  55716-3 0  9997
2 65862  53.1577 218.4201 0001089  78.0958 282.0167 15.34400395 38562
STARLINK-35469          
1 65863U 25223K   26162.46568197  .00009566  00000+0  29397-3 0  9993
2 65863  53.1588 217.8562 0001092 101.8112 258.3013 15.34392227 38570
STARLINK-35471          
1 65864U 25223L   26162.45015580  .00017482  00000+0  60106-3 0  9995
2 65864  53.1578 218.4649 0001066  80.1296 279.9825 15.30195775 38560
STARLINK-35475          
1 65865U 25223M   26162.46147668  .00005741  00000+0  18085-3 0  9994
2 65865  53.1592 217.8265 0001338  88.8459 271.2697 15.34412075 38574
STARLINK-35312          
1 65866U 25223N   26162.73253963  .00013885  00000+0  42137-3 0  9994
2 65866  53.1590 216.6770 0001535  57.5469 302.5682 15.34395706 38612
STARLINK-35456          
1 65867U 25223P   26162.45859550  .00015013  00000+0  51799-3 0  9997
2 65867  53.1583 218.5146 0001332  84.2633 275.8520 15.30199854 38567
STARLINK-35450          
1 65868U 25223Q   26162.39843775  .00017850  00000+0  53822-3 0  9993
2 65868  53.1588 218.1499 0001650 132.8513 227.2628 15.34397055 38567
STARLINK-35441          
1 65869U 25223R   26162.41527499  .00014556  00000+0  44128-3 0  9998
2 65869  53.1597 218.2522 0001349  87.6867 272.4290 15.34387887 38569
STARLINK-35433          
1 65870U 25223S   26162.45437044  .00008431  00000+0  29650-3 0  9998
2 65870  53.1572 218.4897 0000960  99.5490 260.5619 15.30196167 38572
STARLINK-35465          
1 65871U 25223T   26162.46703402  .00009193  00000+0  32205-3 0  9990
2 65871  53.1585 218.5706 0001184  85.3955 274.7181 15.30208231 38561
STARLINK-34108          
1 65872U 25223U   26162.38800441  .00015328  00000+0  52852-3 0  9990
2 65872  53.1577 218.7850 0001010  78.3992 281.7122 15.30202480 38558
STARLINK-35423          
1 65873U 25223V   26162.44885329  .00009426  00000+0  28978-3 0  9990
2 65873  53.1580 217.7467 0000983  78.5735 281.5378 15.34395063 38578
STARLINK-35425          
1 65874U 25223W   26162.42579531  .00016726  00000+0  50500-3 0  9991
2 65874  53.1599 218.3174 0001199  74.7944 285.3191 15.34403891 38564
STARLINK-34688          
1 65875U 25223X   26162.46778501  .00019072  00000+0  57432-3 0  9992
2 65875  53.1588 217.8655 0001242  91.0610 269.0535 15.34390952 38577
STARLINK-34438          
1 65876U 25223Y   26162.44682940  .00008375  00000+0  25883-3 0  9991
2 65876  53.1584 218.4413 0001053 100.5716 259.5405 15.34387045 38564
STARLINK-35462          
1 65877U 25223Z   26162.44489196  .00012859  00000+0  44562-3 0  9997
2 65877  53.1577 218.4280 0001107  92.1652 267.9475 15.30192216 38564
STARLINK-35453          
1 65878U 25223AA  26162.45936808  .00017652  00000+0  53249-3 0  9994
2 65878  53.1583 217.8134 0000887  68.1494 291.9603 15.34390785 38570
STARLINK-35418          
1 65879U 25223AB  26162.47409663  .00020512  00000+0  61675-3 0  9992
2 65879  53.1588 217.9028 0001128  90.5980 269.5151 15.34390762 38571
STARLINK-35445          
1 65880U 25223AC  26162.46988727  .00014132  00000+0  42876-3 0  9999
2 65880  53.1576 217.8706 0001005 105.1070 255.0044 15.34387660 38573
STARLINK-35464          
1 65881U 25223AD  26162.45305616  .00023603  00000+0  70767-3 0  9992
2 65881  53.1579 217.7705 0001208  86.6368 273.4773 15.34392238 38573
STARLINK-35270          
1 65882U 25224A   26162.67486402  .00019731  00000+0  59345-3 0  9997
2 65882  53.1599 293.4012 0001178 122.6100 237.5017 15.34405989 39233
STARLINK-35367          
1 65883U 25224B   26162.66223875  .00034810  00000+0  10366-2 0  9994
2 65883  53.1586 293.3242 0001158  99.8432 260.2702 15.34401824 39233
STARLINK-35384          
1 65884U 25224C   26162.68113385  .00019197  00000+0  65840-3 0  9990
2 65884  53.1573 294.8565 0001132 157.5816 202.5235 15.30210103 39216
