OBJECT_NAME,OBJECT_ID,EPOCH,MEAN_MOTION,ECCENTRICITY,INCLINATION,RA_OF_ASC_NODE,ARG_OF_PERICENTER,MEAN_ANOMALY,EPHEMERIS_TYPE,CLASSIFICATION_TYPE,NORAD_CAT_ID,ELEMENT_SET_NO,REV_AT_EPOCH,BSTAR,MEAN_MOTION_DOT,MEAN_MOTION_DDOT
STARLINK-35200,2025-223B,2026-06-11T11:20:08.129184,15.30197717,.0001261,53.1591,218.6061,69.9483,290.1654,0,U,65855,999,3856,.57118E-3,.16594E-3,0
STARLINK-35459,2025-223C,2026-06-11T10:49:23.305152,15.34363466,.0001144,53.1575,217.7660,73.7505,286.3623,0,U,65856,999,3857,.89316E-4,.2639E-4,0
STARLINK-35489,2025-223D,2026-06-11T11:25:45.306048,15.34367074,.0001309,53.1596,217.9220,70.9213,289.1932,0,U,65857,999,3857,.95364E-3,.31947E-3,0
STARLINK-35199,2025-223E,2026-06-11T10:58:51.568320,15.30196185,.0001235,53.1584,218.5125,87.9456,272.1686,0,U,65858,999,3856,.63557E-3,.18509E-3,0
STARLINK-35408,2025-223F,2026-06-11T10:01:01.682112,15.34396515,.0002346,53.1593,218.2634,98.7711,261.3557,0,U,65859,999,3856,.58862E-3,.19561E-3,0
STARLINK-35303,2025-223G,2026-06-11T11:28:45.012864,15.34369754,.0001149,53.1600,217.9341,101.3609,258.7523,0,U,65860,999,3857,-.6476E-4,-.2561E-4,0
STARLINK-35258,2025-223H,2026-06-11T09:24:39.770208,15.34401026,.0001156,53.1589,218.1075,119.0713,241.0405,0,U,65861,999,3856,.53549E-3,.17759E-3,0
STARLINK-35386,2025-223J,2026-06-11T10:37:23.052288,15.34400395,.0001089,53.1577,218.4201,78.0958,282.0167,0,U,65862,999,3856,.55716E-3,.18495E-3,0
STARLINK-35469,2025-223K,2026-06-11T11:10:34.922208,15.34392227,.0001092,53.1588,217.8562,101.8112,258.3013,0,U,65863,999,3857,.29397E-3,.9566E-4,0
STARLINK-35471,2025-223L,2026-06-11T10:48:13.461120,15.30195775,.0001066,53.1578,218.4649,80.1296,279.9825,0,U,65864,999,3856,.60106E-3,.17482E-3,0
STARLINK-35475,2025-223M,2026-06-11T11:04:31.585152,15.34412075,.0001338,53.1592,217.8265,88.8459,271.2697,0,U,65865,999,3857,.18085E-3,.5741E-4,0
STARLINK-35312,2025-223N,2026-06-11T17:34:51.424032,15.34395706,.0001535,53.1590,216.6770,57.5469,302.5682,0,U,65866,999,3861,.42137E-3,.13885E-3,0
STARLINK-35456,2025-223P,2026-06-11T11:00:22.651200,15.30199854,.0001332,53.1583,218.5146,84.2633,275.8520,0,U,65867,999,3856,.51799E-3,.15013E-3,0
STARLINK-35450,2025-223Q,2026-06-11T09:33:45.021600,15.34397055,.000165,53.1588,218.1499,132.8513,227.2628,0,U,65868,999,3856,.53822E-3,.1785E-3,0
STARLINK-35441,2025-223R,2026-06-11T09:57:59.759136,15.34387887,.0001349,53.1597,218.2522,87.6867,272.4290,0,U,65869,999,3856,.44128E-3,.14556E-3,0
STARLINK-35433,2025-223S,2026-06-11T10:54:17.606016,15.30196167,.000096,53.1572,218.4897,99.5490,260.5619,0,U,65870,999,3857,.2965E-3,.8431E-4,0
STARLINK-35465,2025-223T,2026-06-11T11:12:31.739328,15.30208231,.0001184,53.1585,218.5706,85.3955,274.7181,0,U,65871,999,3856,.32205E-3,.9193E-4,0
STARLINK-34108,2025-223U,2026-06-11T09:18:43.581024,15.30202480,.000101,53.1577,218.7850,78.3992,281.7122,0,U,65872,999,3855,.52852E-3,.15328E-3,0
STARLINK-35423,2025-223V,2026-06-11T10:46:20.924256,15.34395063,.0000983,53.1580,217.7467,78.5735,281.5378,0,U,65873,999,3857,.28978E-3,.9426E-4,0
STARLINK-35425,2025-223W,2026-06-11T10:13:08.714784,15.34403891,.0001199,53.1599,218.3174,74.7944,285.3191,0,U,65874,999,3856,.505E-3,.16726E-3,0
STARLINK-34688,2025-223X,2026-06-11T11:13:36.624864,15.34390952,.0001242,53.1588,217.8655,91.0610,269.0535,0,U,65875,999,3857,.57432E-3,.19072E-3,0
STARLINK-34438,2025-223Y,2026-06-11T10:43:26.060160,15.34387045,.0001053,53.1584,218.4413,100.5716,259.5405,0,U,65876,999,3856,.25883E-3,.8375E-4,0
STARLINK-35462,2025-223Z,2026-06-11T10:40:38.665344,15.30192216,.0001107,53.1577,218.4280,92.1652,267.9475,0,U,65877,999,3856,.44562E-3,.12859E-3,0
STARLINK-35453,2025-223AA,2026-06-11T11:01:29.402112,15.34390785,.0000887,53.1583,217.8134,68.1494,291.9603,0,U,65878,999,3857,.53249E-3,.17652E-3,0
STARLINK-35418,2025-223AB,2026-06-11T11:22:41.948832,15.34390762,.0001128,53.1588,217.9028,90.5980,269.5151,0,U,65879,999,3857,.61675E-3,.20512E-3,0
STARLINK-35445,2025-223AC,2026-06-11T11:16:38.260128,15.34387660,.0001005,53.1576,217.8706,105.1070,255.0044,0,U,65880,999,3857,.42876E-3,.14132E-3,0
STARLINK-35464,2025-223AD,2026-06-11T10:52:24.052224,15.34392238,.0001208,53.1579,217.7705,86.6368,273.4773,0,U,65881,999,3857,.70767E-3,.23603E-3,0
STARLINK-35270,2025-224A,2026-06-11T16:11:48.251328,15.34405989,.0001178,53.1599,293.4012,122.6100,237.5017,0,U,65882,999,3923,.59345E-3,.19731E-3,0
STARLINK-35367,2025-224B,2026-06-11T15:53:37.428000,15.34401824,.0001158,53.1586,293.3242,99.8432,260.2702,0,U,65883,999,3923,.10366E-2,.3481E-3,0
STARLINK-35384,2025-224C,2026-06-11T16:20:49.964640,15.30210103,.0001132,53.1573,294.8565,157.5816,202.5235,0,U,65884,999,3921,.6584E-3,.19197E-3,0
